[
    {
        "Altitude(m)": 604969.0889848729,
        "Argument of Periapsis(deg)": 0.0,
        "Eccentricity": 0.0,
        "Inclination(deg)": 60.0,
        "Latitude(deg)": -0.09253416932086962,
        "Longitude(deg)": 104.97752759773596,
        "Mean Anomaly(deg)": 0.0,
        "RAAN(deg)": 205.0,
        "Satellite Name": "Test1 902",
        "Satellite Number": 902,
        "Semi-Major Axis(m)": 6980739.136638005,
        "Time(s)": 0
    },
    {
        "Altitude(m)": 604900.0293651532,
        "Argument of Periapsis(deg)": 0.00010418945913296404,
        "Eccentricity": 0.0,
        "Inclination(deg)": 60.0,
        "Latitude(deg)": 0.44789170333141687,
        "Longitude(deg)": 105.24565067363294,
        "Mean Anomaly(deg)": 0.6201061454618275,
        "RAAN(deg)": 204.99957995086024,
        "Satellite Name": "Test1 902",
        "Satellite Number": 902,
        "Semi-Major Axis(m)": 6980739.136638005,
        "Time(s)": 10
    }
]